satNo,name,line1,line2,inclination,apogee,raan,argument_of_perigee,eccentricity,mean_motion,hdbscan_labels
51724,STARLINK-3529,1 51724U 22016L   26026.77643861  .00001224  00000-0  94953-4 0  9991,2 51724  53.2175 157.2768 0001576  87.5456 272.5717 15.08856462217099,53.2175,547.9203216926046,157.2768,87.5456,0.0001576,15.08856462,1358
51725,STARLINK-3522,1 51725U 22016M   26026.65498243  .00003760  00000-0  25411-3 0  9990,2 51725  53.2181 157.8193 0001253  82.1977 277.9158 15.08856380217071,53.2181,547.6971264493428,157.8193,82.1977,0.0001253,15.0885638,-1
51726,STARLINK-3527,1 51726U 22016N   26026.48660607  .00004172  00000-0  27990-3 0  9999,2 51726  53.2168 148.5768 0001632  96.7688 263.3490 15.08859830217197,53.2168,547.948765438688,148.5768,96.7688,0.0001632,15.0885983,-1
51727,STARLINK-3532,1 51727U 22016P   26026.78011857  .00000821  00000-0  69640-4 0  9996,2 51727  53.2178 157.2596 0001243  76.9029 283.2102 15.08840213217097,53.2178,547.7396303598108,157.2596,76.9029,0.0001243,15.08840213,1358
51729,STARLINK-3523,1 51729U 22016R   26026.68904673  .00001556  00000-0  11584-3 0  9993,2 51729  53.2160 147.6698 0001509  87.3656 272.7509 15.08835697217222,53.216,547.9374516803362,147.6698,87.3656,0.0001509,15.08835697,1269
51731,STARLINK-3514,1 51731U 22016T   26026.74792220  .00000161  00000-0  28176-4 0  9993,2 51731  53.2174 147.4040 0001254 106.0748 254.0382 15.08834795217238,53.2174,547.7638028083909,147.404,106.0748,0.0001254,15.08834795,1256
51732,STARLINK-3518,1 51732U 22016U   26026.66695292 -.00002852  00000-0 -16112-3 0  9993,2 51732  53.2158 147.7665 0001085  85.6651 274.4465 15.08850448218360,53.2158,547.5990403494043,147.7665,85.6651,0.0001085,15.08850448,-1
51733,STARLINK-3525,1 51733U 22016V   26026.74151564 -.00000213  00000-0  46627-5 0  9996,2 51733  53.2169 147.4440 0000659  82.3542 277.7525 15.08837689217230,53.2169,547.3433415587265,147.444,82.3542,6.59e-05,15.08837689,1256
51734,STARLINK-3450,1 51734U 22016W   26026.92087360  .00003414  00000-0  23252-3 0  9991,2 51734  53.2171 146.6248 0001098  87.7004 272.4114 15.08832934217257,53.2171,547.6615726217627,146.6248,87.7004,0.0001098,15.08832934,-1
51735,STARLINK-3517,1 51735U 22016X   26026.59704207  .00000268  00000-0  34952-4 0  9995,2 51735  53.2165 148.0810 0001183  90.5325 269.5803 15.08841443217218,53.2165,547.69436302213,148.081,90.5325,0.0001183,15.08841443,-1
51736,STARLINK-3447,1 51736U 22016Y   26026.72313489 -.00001087  00000-0 -50232-4 0  9990,2 51736  53.2149 147.6030 0001408  90.6173 269.4980 15.08844350217228,53.2149,547.841128472954,147.603,90.6173,0.0001408,15.0884435,1268
51737,STARLINK-3509,1 51737U 22016Z   26026.72584273  .00001285  00000-0  98812-4 0  9996,2 51737  53.2209 147.4969 0001322  81.3737 278.7405 15.08841586217226,53.2209,547.7900843473822,147.4969,81.3737,0.0001322,15.08841586,1256
51738,STARLINK-3515,1 51738U 22016AA  26026.77368227  .00002969  00000-0  20466-3 0  9990,2 51738  53.2157 147.2869 0001366  84.6934 275.4214 15.08818446217231,53.2157,547.891263164294,147.2869,84.6934,0.0001366,15.08818446,1217
51739,STARLINK-3516,1 51739U 22016AB  26026.71848341  .00000566  00000-0  53640-4 0  9997,2 51739  53.2183 147.5349 0001492  75.8751 284.2407 15.08837490217227,53.2183,547.9202099393028,147.5349,75.8751,0.0001492,15.0883749,1268
51740,STARLINK-3500,1 51740U 22016AC  26026.76632882  .00000458  00000-0  46851-4 0  9991,2 51740  53.2171 147.3219 0001320  88.2694 271.8449 15.08833913217239,53.2171,547.8121572177895,147.3219,88.2694,0.000132,15.08833913,1217
51741,STARLINK-3520,1 51741U 22016AD  26026.71208101  .00000611  00000-0  56455-4 0  9992,2 51741  53.2172 147.5723 0001688  80.8221 279.2963 15.08839875217229,53.2172,548.0485093132723,147.5723,80.8221,0.0001688,15.08839875,1268
51742,STARLINK-3521,1 51742U 22016AE  26026.71482971  .00000828  00000-0  70096-4 0  9999,2 51742  53.2167 147.7428 0001548  89.9613 270.1557 15.08835559217222,53.2167,547.9648533432735,147.7428,89.9613,0.0001548,15.08835559,-1
51743,STARLINK-3512,1 51743U 22016AF  26026.71570678  .00000587  00000-0  54987-4 0  9995,2 51743  53.2179 137.4715 0001340  91.9339 268.1807 15.08846636217367,53.2179,547.7870986953443,137.4715,91.9339,0.000134,15.08846636,1129
51744,STARLINK-3452,1 51744U 22016AG  26026.69272746  .00003248  00000-0  22207-3 0  9994,2 51744  53.2165 147.6818 0001448  84.9193 275.1965 15.08842605217229,53.2165,547.8741344600636,147.6818,84.9193,0.0001448,15.08842605,1269
51745,STARLINK-3449,1 51745U 22016AH  26026.70375684  .00001622  00000-0  11997-3 0  9990,2 51745  53.2153 147.6027 0001266  91.8291 268.2846 15.08836853217222,53.2153,547.7658129758686,147.6027,91.8291,0.0001266,15.08836853,1268
51746,STARLINK-3502,1 51746U 22016AJ  26026.72035517  .00005981  00000-0  39368-3 0  9995,2 51746  53.2164 137.5390 0001435  97.7059 262.4096 15.08828371217365,53.2164,547.9086553297323,137.539,97.7059,0.0001435,15.08828371,1129
51747,STARLINK-3446,1 51747U 22016AK  26026.69736091 -.00007033  00000-0 -42385-3 0  9992,2 51747  53.2159 147.6810 0001112  78.4532 281.6584 15.08873127217222,53.2159,547.5483918701037,147.681,78.4532,0.0001112,15.08873127,1269
51748,STARLINK-3501,1 51748U 22016AL  26026.57954972 -.00004855  00000-0 -28693-3 0  9995,2 51748  53.2151 138.1580 0001424  88.5685 271.5470 15.08864542217347,53.2151,547.7904703904475,138.158,88.5685,0.0001424,15.08864542,1098
51749,STARLINK-3451,1 51749U 22016AM  26026.74060061  .00001818  00000-0  13232-3 0  9999,2 51749  53.2171 147.6191 0001525  96.8477 263.2689 15.08828528217227,53.2171,547.970436607643,147.6191,96.8477,0.0001525,15.08828528,1268
51750,STARLINK-3505,1 51750U 22016AN  26026.70563449 -.00000834  00000-0 -34334-4 0  9991,2 51750  53.2143 137.6027 0001257  88.9187 271.1949 15.08848685217365,53.2143,547.7234167489288,137.6027,88.9187,0.0001257,15.08848685,1129
51751,STARLINK-3506,1 51751U 22016AP  26026.71667623 -.00000149  00000-0  87439-5 0  9995,2 51751  53.2169 137.5541 0001318  92.5516 267.5627 15.08846072217369,53.2169,547.77360354059,137.5541,92.5516,0.0001318,15.08846072,1129
51752,STARLINK-3511,1 51752U 22016AQ  26026.56210947  .00001621  00000-0  11988-3 0  9991,2 51752  53.2166 138.1710 0000840  92.6308 267.4781 15.08839847217341,53.2166,547.461958615888,138.171,92.6308,8.4e-05,15.08839847,1098
51753,STARLINK-3507,1 51753U 22016AR  26026.70931916  .00000486  00000-0  48620-4 0  9996,2 51753  53.2184 137.5868 0001458 105.2041 254.9113 15.08838276217367,53.2184,547.8942862764383,137.5868,105.2041,0.0001458,15.08838276,1129
51754,STARLINK-3457,1 51754U 22016AS  26026.67154000 -.00000242  00000-0  28630-5 0  9995,2 51754  53.2198 137.5095 0001468  89.7749 270.3411 15.08830240217363,53.2198,547.9257707608864,137.5095,89.7749,0.0001468,15.0883024,1129
51755,STARLINK-3460,1 51755U 22016AT  26026.49860666  .00003188  00000-0  21831-3 0  9993,2 51755  53.2194 138.5223 0001229  80.2782 279.8349 15.08837407217335,53.2194,547.738523212987,138.5223,80.2782,0.0001229,15.08837407,1099
51756,STARLINK-3513,1 51756U 22016AU  26026.53540389  .00000229  00000-0  32469-4 0  9999,2 51756  53.2174 138.3602 0001151  67.9811 292.1304 15.08829370217342,53.2174,547.7091325848438,138.3602,67.9811,0.0001151,15.0882937,1099
51757,STARLINK-3459,1 51757U 22016AV  26026.53268463  .00001040  00000-0  83428-4 0  9993,2 51757  53.2184 138.3851 0001196  92.3965 267.7164 15.08829443217344,53.2184,547.7400400317143,138.3851,92.3965,0.0001196,15.08829443,1099
51758,STARLINK-3458,1 51758U 22016AW  26026.72307482 -.00005774  00000-0 -34468-3 0  9999,2 51758  53.2182 137.4684 0001331  87.3025 272.8120 15.08873214218513,53.2182,547.6996252833111,137.4684,87.3025,0.0001331,15.08873214,1129
51759,STARLINK-3456,1 51759U 22016AX  26026.59427606  .00000251  00000-0  33854-4 0  9998,2 51759  53.2176 138.0967 0001204  90.9820 269.1310 15.08844394217358,53.2176,547.6998694783198,138.0967,90.982,0.0001204,15.08844394,1098
51768,STARLINK-3622,1 51768U 22017A   26026.69088442  .00000791  00000-0  67787-4 0  9992,2 51768  53.2179 167.6597 0001694 101.2057 258.9126 15.08835706217706,53.2179,548.0654051966649,167.6597,101.2057,0.0001694,15.08835706,1465
51769,STARLINK-3621,1 51769U 22017B   26026.74976312 -.00000925  00000-0 -40061-4 0  9998,2 51769  53.2151 167.3950 0001477  78.2369 281.8789 15.08834343216272,53.2151,547.9194536913745,167.395,78.2369,0.0001477,15.08834343,-1
51770,STARLINK-3612,1 51770U 22017C   26026.09103862  .00001140  00000-0  89664-4 0  9990,2 51770  53.2156 170.3517 0001459  76.5140 283.6015 15.08846827216182,53.2156,547.8688373391713,170.3517,76.514,0.0001459,15.08846827,-1
51771,STARLINK-3614,1 51771U 22017D   26026.74607627  .00000475  00000-0  47940-4 0  9992,2 51771  53.2152 167.4009 0001405  80.6318 279.4833 15.08842364216279,53.2152,547.845124350694,167.4009,80.6318,0.0001405,15.08842364,-1
51772,STARLINK-3623,1 51772U 22017E   26026.80497737  .00021772  00000-0  13848-2 0  9990,2 51772  53.2162 167.1482 0000987   9.9184 350.1827 15.08760245216279,53.2162,547.8069976877421,167.1482,9.9184,9.87e-05,15.08760245,1570
51773,STARLINK-3624,1 51773U 22017F   26026.80957519  .00001719  00000-0  12601-3 0  9996,2 51773  53.2177 167.0991 0001536  78.8907 281.2258 15.08851447216287,53.2177,547.907981339232,167.0991,78.8907,0.0001536,15.08851447,-1
51774,STARLINK-3629,1 51774U 22017G   26026.79759736  .00000647  00000-0  58746-4 0  9996,2 51774  53.2163 167.1812 0001345  82.0105 278.1040 15.08844101216240,53.2163,547.7983071024679,167.1812,82.0105,0.0001345,15.08844101,1570
51775,STARLINK-3620,1 51775U 22017H   26026.80866122  .00005277  00000-0  34947-3 0  9997,2 51775  53.2149 167.1313 0001351  95.8625 264.2521 15.08833698216280,53.2149,547.8342599669415,167.1313,95.8625,0.0001351,15.08833698,1570
51776,STARLINK-3608,1 51776U 22017J   26026.79392148  .00000060  00000-0  21837-4 0  9998,2 51776  53.2164 167.2003 0001157  77.6784 282.4337 15.08851658216242,53.2164,547.6451499895854,167.2003,77.6784,0.0001157,15.08851658,1570
